STARLINK-4730           
1 53794U 22111X   23305.92276332  .00019800  00000+0  12573-2 0  9999
2 53794  53.2170 169.1260 0001438 103.9447 256.1705 15.08879115 63243
STARLINK-4742           
1 53795U 22111Y   23305.90705869  .00003034  00000+0  20858-3 0  9998
2 53795  53.2153 169.0290 0001533  85.5394 274.5774 15.08849692 64045
STARLINK-4721           
1 53796U 22111Z   23305.84633492 -.00000259  00000+0  17903-5 0  9990
2 53796  53.2189 149.2836 0001462 107.9631 252.1521 15.08837839 64340
STARLINK-4723           
1 53797U 22111AA  23305.89600648  .00002119  00000+0  15121-3 0  9997
2 53797  53.2159 168.9590 0001402  87.7816 272.3337 15.08840745 64032
STARLINK-4712           
1 53798U 22111AB  23305.89969246  .00007522  00000+0  49002-3 0  9998
2 53798  53.2158 168.9823 0001473  93.3056 266.8104 15.08850521 64031
STARLINK-4710           
1 53799U 22111AC  23305.87586304  .00002843  00000+0  19659-3 0  9993
2 53799  53.2149 159.5574 0001476  82.8312 277.2848 15.08846982 64163
STARLINK-4720           
1 53800U 22111AD  23306.32753281  .00001377  00000+0  10460-3 0  9999
2 53800  53.2158 157.4022 0001538 110.8461 249.2696 15.08839687 63429
STARLINK-4715           
1 53801U 22111AE  23305.88394984  .00002840  00000+0  20505-3 0  9998
2 53801  53.2164 159.6052 0001485  95.0012 265.1148 15.07209548 63358
STARLINK-4726           
1 53802U 22111AF  23305.92272227  .00003107  00000+0  21319-3 0  9990
2 53802  53.2153 159.1455 0001359  88.7123 271.4025 15.08844370 64175
STARLINK-4727           
1 53803U 22111AG  23306.53316589  .00001574  00000+0  11699-3 0  9995
2 53803  53.2156 141.5811 0001466  87.1416 272.9744 15.08840258 63665
STARLINK-4729           
1 53804U 22111AH  23305.84868807  .00000393  00000+0  42779-4 0  9996
2 53804  53.2167 154.3935 0001375  88.8870 271.2280 15.08842020 64238
STARLINK-4763           
1 53805U 22111AJ  23305.87909244  .00002129  00000+0  15178-3 0  9992
2 53805  53.2146 144.5987 0001335  84.8085 275.3059 15.08841896 64378
STARLINK-4768           
1 53806U 22111AK  23305.85234443  .00003352  00000+0  22855-3 0  9992
2 53806  53.2154 144.4337 0001291  82.4355 277.6784 15.08845864 64370
BLUEWALKER 3            
1 53807U 22111AL  23305.89161642  .00006424  00000+0  28673-3 0  9994
2 53807  53.2214 162.6622 0013285 114.6407 245.5976 15.22557362 63419
STARLINK-4749           
1 53818U 22114A   23306.37650538 -.00007071  00000+0 -34276-3 0  9997
2 53818  53.2181 183.5079 0001169 119.4707 240.6405 15.16546638 62910
STARLINK-4738           
1 53819U 22114B   23306.11875583  .00008797  00000+0  56977-3 0  9995
2 53819  53.2159 198.5866 0001431  95.8183 264.2973 15.08862478 62672
STARLINK-4758           
1 53820U 22114C   23305.92276306  .00005003  00000+0  33208-3 0  9992
2 53820  53.2176 199.4961 0002010 118.7369 241.3826 15.08853213 63181
STARLINK-4752           
1 53821U 22114D   23305.87170754  .00000124  00000+0  25888-4 0  9992
2 53821  53.2163 144.3146 0001511 105.9409 254.1750 15.08834650 63418
STARLINK-4748           
1 53823U 22114F   23306.29303580  .00002627  00000+0  18306-3 0  9992
2 53823  53.2153 152.5973 0001335  87.5655 272.5490 15.08845475 63333
STARLINK-4757           
1 53824U 22114G   23306.11042989  .00001839  00000+0  13359-3 0  9994
2 53824  53.2166 198.5323 0001389  99.4489 260.6660 15.08848958 62675
STARLINK-4751           
1 53825U 22114H   23305.91539849  .00004144  00000+0  27823-3 0  9991
2 53825  53.2165 199.4521 0001875  75.9853 284.1348 15.08848989 63184
STARLINK-4756           
1 53826U 22114J   23305.96321276  .00007117  00000+0  46468-3 0  9999
2 53826  53.2151 199.0400 0001479  87.0795 273.0367 15.08851520 63195
STARLINK-4764           
1 53827U 22114K   23305.90803033  .00002567  00000+0  17930-3 0  9996
2 53827  53.2173 199.4027 0001495  87.0530 273.0633 15.08844879 63188
STARLINK-4760           
1 53828U 22114L   23305.95953123  .00003074  00000+0  21112-3 0  9999
2 53828  53.2157 199.0177 0001844  88.0191 272.1012 15.08846121 62659
STARLINK-4759           
1 53829U 22114M   23306.43426305  .00004296  00000+0  28783-3 0  9999
2 53829  53.2152 197.0016 0001569  85.4890 274.6282 15.08842097 62728
STARLINK-4761           
1 53830U 22114N   23305.95216096 -.00001404  00000+0 -70165-4 0  9993
2 53830  53.2172 198.9748 0001779  90.8900 269.2296 15.08835937 63191
STARLINK-4649           
1 53831U 22114P   23306.43057720  .00000458  00000+0  46889-4 0  9997
2 53831  53.2151 196.9769 0001388  93.2265 266.8886 15.08843432 62722
STARLINK-4747           
1 53832U 22114Q   23305.94479124  .00001686  00000+0  12397-3 0  9999
2 53832  53.2176 198.9288 0001478 103.5514 256.5642 15.08841698 62650
STARLINK-4771           
1 53833U 22114R   23305.95584293  .00001899  00000+0  13734-3 0  9997
2 53833  53.2159 198.9960 0001040 101.4407 258.6702 15.08843771 63196
STARLINK-4737           
1 53834U 22114S   23305.93742145  .00003581  00000+0  24293-3 0  9990
2 53834  53.2175 198.8820 0001577 100.4224 259.6946 15.08848176 63195
STARLINK-4783           
1 53835U 22114T   23305.94847693  .00002317  00000+0  16362-3 0  9990
2 53835  53.2154 198.9481 0001518  91.2701 268.8465 15.08841434 63197
STARLINK-4778           
1 53836U 22114U   23306.11871986  .00007465  00000+0  48646-3 0  9992
2 53836  53.2161 188.6005 0001574  88.6069 271.5104 15.08854135 62814
STARLINK-4776           
1 53837U 22114V   23305.94110587  .00004467  00000+0  29852-3 0  9993
2 53837  53.2171 198.9062 0001728  97.5833 262.5355 15.08848311 63191
STARLINK-4773           
1 53838U 22114W   23305.98256153  .00002830  00000+0  19581-3 0  9998
2 53838  53.2168 189.1780 0001563  99.3190 260.7978 15.08843381 62798
STARLINK-4784           
1 53839U 22114X   23306.05617093  .00000522  00000+0  50895-4 0  9992
2 53839  53.2184 188.9254 0001573  88.6773 271.4399 15.08838876 62800
STARLINK-4766           
1 53840U 22114Y   23305.90622114  .00006855  00000+0  44815-3 0  9996
2 53840  53.2165 189.4105 0001302  92.9713 267.1428 15.08856603 63325
STARLINK-4750           
1 53841U 22114Z   23306.11135430  .00003085  00000+0  21180-3 0  9993
2 53841  53.2164 188.5593 0001376  95.6541 264.4608 15.08847461 62811
STARLINK-4754           
1 53842U 22114AA  23305.96413493  .00002906  00000+0  20056-3 0  9996
2 53842  53.2160 189.0601 0001478  84.8280 275.2881 15.08851363 63334
STARLINK-4769           
1 53843U 22114AB  23305.90894793  .00002095  00000+0  14966-3 0  9999
2 53843  53.2168 189.4277 0002010 116.3103 243.8096 15.08848787 63328
STARLINK-4745           
1 53844U 22114AC  23305.95676803  .00000735  00000+0  64305-4 0  9997
2 53844  53.2168 189.0171 0001460  79.3194 280.7963 15.08835702 63331
STARLINK-4753           
1 53845U 22114AD  23305.96782282  .00003796  00000+0  25643-3 0  9999
2 53845  53.2162 189.1007 0001287  94.3488 265.7651 15.08844468 63331
STARLINK-4746           
1 53846U 22114AE  23305.94939908  .00002917  00000+0  20124-3 0  9990
2 53846  53.2158 188.9703 0001315  96.2474 263.8668 15.08844610 62790
STARLINK-4777           
1 53847U 22114AF  23305.96045448  .00004510  00000+0  30124-3 0  9992
2 53847  53.2164 189.0359 0001361  96.2637 263.8510 15.08845362 63331
STARLINK-4780           
1 53848U 22114AG  23306.40570736  .00002328  00000+0  16426-3 0  9990
2 53848  53.2157 186.8414 0001313  99.9051 260.2090 15.08844632 62868
STARLINK-4770           
1 53849U 22114AH  23305.95308298  .00001751  00000+0  12806-3 0  9999
2 53849  53.2157 188.9922 0001397  98.2835 261.8315 15.08845199 63339
STARLINK-4767           
1 53850U 22114AJ  23305.93097461  .00001532  00000+0  11431-3 0  9996
2 53850  53.2165 188.8576 0001849  85.7899 274.3304 15.08843776 63333
STARLINK-4755           
1 53851U 22114AK  23305.94571514  .00001384  00000+0  10500-3 0  9995
2 53851  53.2169 188.9452 0001400  88.6387 271.4765 15.08840649 63334
STARLINK-4797           
1 53852U 22114AL  23305.95906837  .00004911  00000+0  32631-3 0  9995
2 53852  53.2161 184.0422 0001250  78.8247 281.2885 15.08852531 63403
STARLINK-4794           
1 53853U 22114AM  23305.93834263  .00001944  00000+0  14018-3 0  9999
2 53853  53.2157 188.8996 0001267  99.3533 260.7603 15.08842507 63335
STARLINK-4800           
1 53854U 22114AN  23306.38460629  .00004068  00000+0  27347-3 0  9990
2 53854  53.2152 177.4360 0001393  88.0629 272.0522 15.08847212 62996
STARLINK-4703           
1 53855U 22114AP  23305.94298357  .00002435  00000+0  17101-3 0  9992
2 53855  53.2160 188.9252 0001558  94.6569 265.4601 15.08847229 63333
STARLINK-4795           
1 53856U 22114AQ  23306.03866692  .00002738  00000+0  19001-3 0  9994
2 53856  53.2157 178.8300 0001449 107.1074 253.0077 15.08849658 62946
STARLINK-4809           
1 53857U 22114AR  23305.92728815  .00000495  00000+0  49186-4 0  9992
2 53857  53.2157 188.8349 0001617  83.3317 276.7859 15.08842554 63335
STARLINK-4798           
1 53858U 22114AS  23305.91724452  .00002544  00000+0  17784-3 0  9990
2 53858  53.2148 179.4955 0001619  82.0766 278.0409 15.08842774 63465
STARLINK-4790           
1 53859U 22114AT  23306.39695432  .00004421  00000+0  29565-3 0  9995
2 53859  53.2150 181.8021 0001692  88.9915 271.1271 15.08842312 62932
STARLINK-4799           
1 53860U 22114AU  23305.90987147  .00006438  00000+0  42208-3 0  9999
2 53860  53.2150 179.4509 0001422  85.3485 274.7670 15.08851794 62927
STARLINK-4781           
1 53861U 22114AV  23305.91355903  .00018744  00000+0  11924-2 0  9993
2 53861  53.2144 179.4730 0001474  85.8482 274.2678 15.08848284 63469
STARLINK-4792           
1 53862U 22114AW  23305.96123217  .00001234  00000+0  91679-4 0  9993
2 53862  53.2156 179.0628 0001150  92.6932 267.4192 15.10477416 62936
STARLINK-4788           
1 53863U 22114AX  23305.90250388  .00001516  00000+0  11333-3 0  9999
2 53863  53.2153 179.4069 0001439  86.4253 273.6903 15.08844439 63462
